AIST-2T 2               
1 67254U 25313G   26014.37392021  .00028307  00000+0  28977-3 0  9993
2 67254  97.1036  91.6967 0010641 178.8731 181.2555 15.64893505  2608
2025-313H               
1 67255U 25313H   26014.52991987  .00001444  00000+0  10459-3 0  9996
2 67255  97.3101  91.0408 0091147 137.6376 223.1935 15.02164736  2557
SITRO-AIS-57            
1 67256U 25313J   26014.46731357  .00006027  00000+0  28303-3 0  9992
2 67256  97.4109  91.6242 0016884 177.3064 182.8265 15.19868920  2572
SITRO-AIS-59            
1 67257U 25313K   26014.46691072  .00005856  00000+0  27489-3 0  9995
2 67257  97.4117  91.6261 0016612 179.2961 180.8301 15.19895357  2572
SITRO-AIS-58            
1 67258U 25313L   26014.46657592  .00005963  00000+0  27953-3 0  9990
2 67258  97.4112  91.6250 0016559 178.6610 181.4672 15.19937629  2577
2025-313M               
1 67259U 25313M   26014.46400746  .00007512  00000+0  34846-3 0  9999
2 67259  97.4155  91.6493 0015777 177.1722 182.9605 15.20223974  2578
SITRO-AIS-60            
1 67260U 25313N   26014.46515041  .00004802  00000+0  22525-3 0  9996
2 67260  97.4120  91.6290 0015951 178.8321 181.2954 15.20027235  2575
2025-313P               
1 67261U 25313P   26014.46279110  .00009904  00000+0  45579-3 0  9993
2 67261  97.4156  91.6512 0015588 177.4143 182.7176 15.20412791  2572
2025-313Q               
1 67262U 25313Q   26014.52970825  .00006248  00000+0  29057-3 0  9993
2 67262  97.4122  91.6957 0015638 179.1693 180.9571 15.20207962  2586
DCS-1                   
1 67263U 25313R   26014.46413175  .00005890  00000+0  27453-3 0  9997
2 67263  97.4134  91.6451 0015581 178.3403 181.7887 15.20156898  2575
2025-313S               
1 67264U 25313S   26014.53066420  .00003874  00000+0  18235-3 0  9991
2 67264  97.4204  91.7067 0015568 183.2778 176.8357 15.20037089  2581
SITRO-TD-4              
1 67265U 25313T   26014.46379237  .00005531  00000+0  25783-3 0  9995
2 67265  97.4114  91.6407 0015503 179.2002 180.9261 15.20181602  2573
