CCSDS_OMM_VERS = 2.0
CREATION_DATE  = 
ORIGINATOR     = 

OBJECT_NAME    = AIST-2T 2
OBJECT_ID      = 2025-313G
CENTER_NAME    = EARTH
REF_FRAME      = TEME
TIME_SYSTEM    = UTC
MEAN_ELEMENT_THEORY = SGP/SGP4

EPOCH          = 2026-01-14T08:58:26.706144
MEAN_MOTION    = 15.64893505
ECCENTRICITY   = .00106419
INCLINATION    = 97.1036
RA_OF_ASC_NODE = 91.6967
ARG_OF_PERICENTER = 178.8731
MEAN_ANOMALY   = 181.2555

EPHEMERIS_TYPE = 0
CLASSIFICATION_TYPE = U
NORAD_CAT_ID   = 67254
ELEMENT_SET_NO = 999
REV_AT_EPOCH   = 260
BSTAR          = .28976854E-3
MEAN_MOTION_DOT = .28307E-3
MEAN_MOTION_DDOT = 0

CCSDS_OMM_VERS = 2.0
CREATION_DATE  = 
ORIGINATOR     = 

OBJECT_NAME    = 2025-313H
OBJECT_ID      = 2025-313H
CENTER_NAME    = EARTH
REF_FRAME      = TEME
TIME_SYSTEM    = UTC
MEAN_ELEMENT_THEORY = SGP/SGP4

EPOCH          = 2026-01-14T12:43:05.076768
MEAN_MOTION    = 15.02164736
ECCENTRICITY   = .00911475
INCLINATION    = 97.3101
RA_OF_ASC_NODE = 91.0408
ARG_OF_PERICENTER = 137.6376
MEAN_ANOMALY   = 223.1935

EPHEMERIS_TYPE = 0
CLASSIFICATION_TYPE = U
NORAD_CAT_ID   = 67255
ELEMENT_SET_NO = 999
REV_AT_EPOCH   = 255
BSTAR          = .10459174E-3
MEAN_MOTION_DOT = .1444E-4
MEAN_MOTION_DDOT = 0

CCSDS_OMM_VERS = 2.0
CREATION_DATE  = 
ORIGINATOR     = 

OBJECT_NAME    = SITRO-AIS-57
OBJECT_ID      = 2025-313J
CENTER_NAME    = EARTH
REF_FRAME      = TEME
TIME_SYSTEM    = UTC
MEAN_ELEMENT_THEORY = SGP/SGP4

EPOCH          = 2026-01-14T11:12:55.892448
MEAN_MOTION    = 15.19868920
ECCENTRICITY   = .00168849
INCLINATION    = 97.4109
RA_OF_ASC_NODE = 91.6242
ARG_OF_PERICENTER = 177.3064
MEAN_ANOMALY   = 182.8265

EPHEMERIS_TYPE = 0
CLASSIFICATION_TYPE = U
NORAD_CAT_ID   = 67256
ELEMENT_SET_NO = 999
REV_AT_EPOCH   = 257
BSTAR          = .28302926E-3
MEAN_MOTION_DOT = .6027E-4
MEAN_MOTION_DDOT = 0

CCSDS_OMM_VERS = 2.0
CREATION_DATE  = 
ORIGINATOR     = 

OBJECT_NAME    = SITRO-AIS-59
OBJECT_ID      = 2025-313K
CENTER_NAME    = EARTH
REF_FRAME      = TEME
TIME_SYSTEM    = UTC
MEAN_ELEMENT_THEORY = SGP/SGP4

EPOCH          = 2026-01-14T11:12:21.086208
MEAN_MOTION    = 15.19895357
ECCENTRICITY   = .0016612
INCLINATION    = 97.4117
RA_OF_ASC_NODE = 91.6261
ARG_OF_PERICENTER = 179.2961
MEAN_ANOMALY   = 180.8301

EPHEMERIS_TYPE = 0
CLASSIFICATION_TYPE = U
NORAD_CAT_ID   = 67257
ELEMENT_SET_NO = 999
REV_AT_EPOCH   = 257
BSTAR          = .27488897E-3
MEAN_MOTION_DOT = .5856E-4
MEAN_MOTION_DDOT = 0

CCSDS_OMM_VERS = 2.0
CREATION_DATE  = 
ORIGINATOR     = 

OBJECT_NAME    = SITRO-AIS-58
OBJECT_ID      = 2025-313L
CENTER_NAME    = EARTH
REF_FRAME      = TEME
TIME_SYSTEM    = UTC
MEAN_ELEMENT_THEORY = SGP/SGP4

EPOCH          = 2026-01-14T11:11:52.159488
MEAN_MOTION    = 15.19937629
ECCENTRICITY   = .00165597
INCLINATION    = 97.4112
RA_OF_ASC_NODE = 91.6250
ARG_OF_PERICENTER = 178.6610
MEAN_ANOMALY   = 181.4672

EPHEMERIS_TYPE = 0
CLASSIFICATION_TYPE = U
NORAD_CAT_ID   = 67258
ELEMENT_SET_NO = 999
REV_AT_EPOCH   = 257
BSTAR          = .27952872E-3
MEAN_MOTION_DOT = .5963E-4
MEAN_MOTION_DDOT = 0

CCSDS_OMM_VERS = 2.0
CREATION_DATE  = 
ORIGINATOR     = 

OBJECT_NAME    = 2025-313M
OBJECT_ID      = 2025-313M
CENTER_NAME    = EARTH
REF_FRAME      = TEME
TIME_SYSTEM    = UTC
MEAN_ELEMENT_THEORY = SGP/SGP4

EPOCH          = 2026-01-14T11:08:10.244544
MEAN_MOTION    = 15.20223974
ECCENTRICITY   = .00157773
INCLINATION    = 97.4155
RA_OF_ASC_NODE = 91.6493
ARG_OF_PERICENTER = 177.1722
MEAN_ANOMALY   = 182.9605

EPHEMERIS_TYPE = 0
CLASSIFICATION_TYPE = U
NORAD_CAT_ID   = 67259
ELEMENT_SET_NO = 999
REV_AT_EPOCH   = 257
BSTAR          = .3484567E-3
MEAN_MOTION_DOT = .7512E-4
MEAN_MOTION_DDOT = 0

CCSDS_OMM_VERS = 2.0
CREATION_DATE  = 
ORIGINATOR     = 

OBJECT_NAME    = SITRO-AIS-60
OBJECT_ID      = 2025-313N
CENTER_NAME    = EARTH
REF_FRAME      = TEME
TIME_SYSTEM    = UTC
MEAN_ELEMENT_THEORY = SGP/SGP4

EPOCH          = 2026-01-14T11:09:48.995424
MEAN_MOTION    = 15.20027235
ECCENTRICITY   = .00159516
INCLINATION    = 97.4120
RA_OF_ASC_NODE = 91.6290
ARG_OF_PERICENTER = 178.8321
MEAN_ANOMALY   = 181.2954

EPHEMERIS_TYPE = 0
CLASSIFICATION_TYPE = U
NORAD_CAT_ID   = 67260
ELEMENT_SET_NO = 999
REV_AT_EPOCH   = 257
BSTAR          = .22525088E-3
MEAN_MOTION_DOT = .4802E-4
MEAN_MOTION_DDOT = 0

CCSDS_OMM_VERS = 2.0
CREATION_DATE  = 
ORIGINATOR     = 

OBJECT_NAME    = 2025-313P
OBJECT_ID      = 2025-313P
CENTER_NAME    = EARTH
REF_FRAME      = TEME
TIME_SYSTEM    = UTC
MEAN_ELEMENT_THEORY = SGP/SGP4

EPOCH          = 2026-01-14T11:06:25.151040
MEAN_MOTION    = 15.20412791
ECCENTRICITY   = .00155889
INCLINATION    = 97.4156
RA_OF_ASC_NODE = 91.6512
ARG_OF_PERICENTER = 177.4143
MEAN_ANOMALY   = 182.7176

EPHEMERIS_TYPE = 0
CLASSIFICATION_TYPE = U
NORAD_CAT_ID   = 67261
ELEMENT_SET_NO = 999
REV_AT_EPOCH   = 257
BSTAR          = .45578752E-3
MEAN_MOTION_DOT = .9904E-4
MEAN_MOTION_DDOT = 0

CCSDS_OMM_VERS = 2.0
CREATION_DATE  = 
ORIGINATOR     = 

OBJECT_NAME    = 2025-313Q
OBJECT_ID      = 2025-313Q
CENTER_NAME    = EARTH
REF_FRAME      = TEME
TIME_SYSTEM    = UTC
MEAN_ELEMENT_THEORY = SGP/SGP4

EPOCH          = 2026-01-14T12:42:46.792800
MEAN_MOTION    = 15.20207962
ECCENTRICITY   = .00156385
INCLINATION    = 97.4122
RA_OF_ASC_NODE = 91.6957
ARG_OF_PERICENTER = 179.1693
MEAN_ANOMALY   = 180.9571

EPHEMERIS_TYPE = 0
CLASSIFICATION_TYPE = U
NORAD_CAT_ID   = 67262
ELEMENT_SET_NO = 999
REV_AT_EPOCH   = 258
BSTAR          = .29057094E-3
MEAN_MOTION_DOT = .6248E-4
MEAN_MOTION_DDOT = 0

CCSDS_OMM_VERS = 2.0
CREATION_DATE  = 
ORIGINATOR     = 

OBJECT_NAME    = DCS-1
OBJECT_ID      = 2025-313R
CENTER_NAME    = EARTH
REF_FRAME      = TEME
TIME_SYSTEM    = UTC
MEAN_ELEMENT_THEORY = SGP/SGP4

EPOCH          = 2026-01-14T11:08:20.983200
MEAN_MOTION    = 15.20156898
ECCENTRICITY   = .00155812
INCLINATION    = 97.4134
RA_OF_ASC_NODE = 91.6451
ARG_OF_PERICENTER = 178.3403
MEAN_ANOMALY   = 181.7887

EPHEMERIS_TYPE = 0
CLASSIFICATION_TYPE = U
NORAD_CAT_ID   = 67263
ELEMENT_SET_NO = 999
REV_AT_EPOCH   = 257
BSTAR          = .27453489E-3
MEAN_MOTION_DOT = .589E-4
MEAN_MOTION_DDOT = 0

CCSDS_OMM_VERS = 2.0
CREATION_DATE  = 
ORIGINATOR     = 

OBJECT_NAME    = 2025-313S
OBJECT_ID      = 2025-313S
CENTER_NAME    = EARTH
REF_FRAME      = TEME
TIME_SYSTEM    = UTC
MEAN_ELEMENT_THEORY = SGP/SGP4

EPOCH          = 2026-01-14T12:44:09.386880
MEAN_MOTION    = 15.20037089
ECCENTRICITY   = .00155682
INCLINATION    = 97.4204
RA_OF_ASC_NODE = 91.7067
ARG_OF_PERICENTER = 183.2778
MEAN_ANOMALY   = 176.8357

EPHEMERIS_TYPE = 0
CLASSIFICATION_TYPE = U
NORAD_CAT_ID   = 67264
ELEMENT_SET_NO = 999
REV_AT_EPOCH   = 258
BSTAR          = .18234669E-3
MEAN_MOTION_DOT = .3874E-4
MEAN_MOTION_DDOT = 0

CCSDS_OMM_VERS = 2.0
CREATION_DATE  = 
ORIGINATOR     = 

OBJECT_NAME    = SITRO-TD-4
OBJECT_ID      = 2025-313T
CENTER_NAME    = EARTH
REF_FRAME      = TEME
TIME_SYSTEM    = UTC
MEAN_ELEMENT_THEORY = SGP/SGP4

EPOCH          = 2026-01-14T11:07:51.660768
MEAN_MOTION    = 15.20181602
ECCENTRICITY   = .00155038
INCLINATION    = 97.4114
RA_OF_ASC_NODE = 91.6407
ARG_OF_PERICENTER = 179.2002
MEAN_ANOMALY   = 180.9261

EPHEMERIS_TYPE = 0
CLASSIFICATION_TYPE = U
NORAD_CAT_ID   = 67265
ELEMENT_SET_NO = 999
REV_AT_EPOCH   = 257
BSTAR          = .25783099E-3
MEAN_MOTION_DOT = .5531E-4
MEAN_MOTION_DDOT = 0

